[{"OBJECT_NAME":"STARLINK-34441","OBJECT_ID":"2025-129U","EPOCH":"2026-03-09T11:15:56.881440","MEAN_MOTION":14.98328651,"ECCENTRICITY":0.00031971,"INCLINATION":70.0024,"RA_OF_ASC_NODE":75.0399,"ARG_OF_PERICENTER":278.1591,"MEAN_ANOMALY":81.9206,"EPHEMERIS_TYPE":0,"CLASSIFICATION_TYPE":"U","NORAD_CAT_ID":64430,"ELEMENT_SET_NO":999,"REV_AT_EPOCH":4125,"BSTAR":0.00010432596,"MEAN_MOTION_DOT":1.152e-5,"MEAN_MOTION_DDOT":0},{"OBJECT_NAME":"COSMOS 249 DEB","OBJECT_ID":"1968-091BP","EPOCH":"2026-03-09T03:57:13.495392","MEAN_MOTION":13.42038189,"ECCENTRICITY":0.07938892,"INCLINATION":62.9233,"RA_OF_ASC_NODE":0.91,"ARG_OF_PERICENTER":72.9065,"MEAN_ANOMALY":295.7294,"EPHEMERIS_TYPE":0,"CLASSIFICATION_TYPE":"U","NORAD_CAT_ID":3911,"ELEMENT_SET_NO":999,"REV_AT_EPOCH":65389,"BSTAR":0.001716156,"MEAN_MOTION_DOT":6.769e-5,"MEAN_MOTION_DDOT":0}]
